OBJECT_NAME,OBJECT_ID,EPOCH,MEAN_MOTION,ECCENTRICITY,INCLINATION,RA_OF_ASC_NODE,ARG_OF_PERICENTER,MEAN_ANOMALY,EPHEMERIS_TYPE,CLASSIFICATION_TYPE,NORAD_CAT_ID,ELEMENT_SET_NO,REV_AT_EPOCH,BSTAR,MEAN_MOTION_DOT,MEAN_MOTION_DDOT
PERSEUS-M1,2014-033AF,2026-06-15T10:19:54.529536,14.95626197,.00104316,97.9642,110.5335,308.1412,51.8868,0,U,40039,999,65037,.10467336E-3,.1103E-4,0
POLYITAN-1,2014-033AJ,2026-06-15T13:13:46.104384,15.33207736,.0008532,98.0935,192.6573,146.2556,213.9228,0,U,40042,999,65334,.49793499E-3,.1592E-3,0
TIGRISAT,2014-033AK,2026-06-15T08:44:21.238944,14.85156509,.00506437,97.7826,316.4173,81.0598,279.6345,0,U,40043,999,64535,.22485378E-3,.1914E-4,0
AEROCUBE 6A,2014-033AM,2026-06-15T10:05:34.950624,14.98093876,.00390644,97.7236,333.3875,24.0890,336.2149,0,U,40045,999,64635,.41491623E-3,.4928E-4,0
AEROCUBE 6B,2014-033AN,2026-06-15T10:11:24.819648,14.99555300,.00384545,97.7236,333.1780,15.4316,344.8070,0,U,40046,999,64649,.35004812E-3,.4308E-4,0
CANX-4,2014-034C,2026-06-15T14:21:27.300960,14.81262169,.00132777,98.3124,41.8530,21.9807,338.1971,0,U,40055,999,64429,.10965384E-3,.798E-5,0
CANX-5,2014-034D,2026-06-15T14:19:13.527840,14.81279371,.00132845,98.3126,41.8948,22.1634,338.0149,0,U,40056,999,63510,.11015538E-3,.803E-5,0
UKUBE-1,2014-037F,2026-06-15T13:57:29.320704,15.13532426,.00025821,98.4228,169.6848,134.1478,225.9963,0,U,40074,999,64831,.37752699E-3,.6688E-4,0
BRITE-PL2 (HEWELIUSZ),2014-049B,2026-06-15T13:34:25.369824,14.94588461,.00152335,97.9096,278.5530,113.2986,246.9839,0,U,40119,999,64120,.13480823E-3,.1402E-4,0
AEROCUBE 5C,2015-058B,2026-06-15T13:28:37.934688,14.91447633,.01306807,64.7679,267.6472,63.9056,297.5436,0,U,40965,999,36541,.18826669E-3,.2043E-4,0
AEROCUBE 7,2015-058C,2026-06-15T13:30:02.202336,14.95717126,.0120418,64.7627,249.9052,62.3296,298.9978,0,U,40966,999,36571,.23154258E-3,.2808E-4,0
FOX-1A (AO-85),2015-058D,2026-06-15T14:36:24.469056,14.90963368,.01303567,64.7762,283.8894,57.2038,304.1552,0,U,40967,999,11333,.19416751E-3,.2082E-4,0
SINOD-D 1,2015-058E,2026-06-15T14:34:50.316384,14.95897746,.01189568,64.7760,263.8595,53.7061,307.4970,0,U,40968,999,11642,.22815673E-3,.2768E-4,0
SNAP-3 ALICE,2015-058G,2026-06-15T13:42:11.780352,15.59736104,.00286221,64.7500,109.5165,13.8355,346.3568,0,U,40970,999,11663,.12439784E-2,.103207E-2,0
LMRST-SAT,2015-058H,2026-06-15T13:31:27.905952,14.90583876,.0131989,64.7767,280.3641,59.2584,302.1449,0,U,40971,999,11331,.18115675E-3,.1918E-4,0
SNAP-3 EDDIE,2015-058J,2026-06-15T10:25:16.366944,15.60973752,.00281391,64.7429,100.7268,17.9086,342.3045,0,U,40972,999,11875,.1196755E-2,.104076E-2,0
PROPCUBE 3,2015-058K,2026-06-15T12:52:04.228320,14.94250037,.01239545,64.7688,257.6942,60.5643,300.7773,0,U,40973,999,11455,.21059098E-3,.2455E-4,0
BISONSAT,2015-058L,2026-06-15T09:13:13.923552,15.16153901,.00788805,64.7577,179.4739,48.0183,312.7625,0,U,40974,999,11534,.43227724E-3,.8868E-4,0
SNAP-3 JIMI,2015-058M,2026-06-15T12:35:57.487488,15.02286136,.01060672,64.7640,225.0320,56.0418,305.0725,0,U,40975,999,11397,.26263862E-3,.3739E-4,0
PROPCUBE 1 (FLORA),2015-058N,2026-06-15T14:01:07.109184,14.89216099,.01306686,64.7756,300.2041,61.5482,299.8721,0,U,40976,999,11602,.20032156E-3,.2053E-4,0
SINOD-D 3,2015-058P,2026-06-15T13:37:18.835968,14.94007700,.01191795,64.7737,280.8763,58.7706,302.5021,0,U,40977,999,11451,.24003023E-3,.2772E-4,0
HORYU-4,2016-012D,2026-06-15T10:27:05.146272,15.94546005,.00051492,30.9849,91.8834,261.3375,98.6703,0,U,41340,999,57053,.9799184E-3,.392649E-2,.54782598E-4
RAVAN,2016-067B,2026-06-15T05:47:36.395808,15.54518227,.0004713,97.9893,55.5895,37.6149,322.5432,0,U,41849,999,52739,.65707E-3,.43365E-3,0
CELTEE 1,2016-067C,2026-06-15T13:27:48.840480,15.19669705,.00008504,98.0673,33.0173,123.6796,236.4518,0,U,41850,999,52563,.22224743E-3,.4664E-4,0
OPTICUBE 04,2016-067D,2026-06-15T13:18:46.873152,15.09652461,.00168239,98.0695,18.7533,120.6737,239.6151,0,U,41851,999,52492,.11904981E-3,.185E-4,0
AEROCUBE 8D,2016-067E,2026-06-15T13:55:28.051392,15.24379223,.00046089,98.0682,36.6295,127.2038,232.9619,0,U,41852,999,52582,.27199619E-3,.6583E-4,0
AEROCUBE 8C,2016-067F,2026-06-15T14:31:49.661760,15.24627685,.00066662,98.0553,33.8864,73.3759,286.8208,0,U,41853,999,52582,.25256613E-3,.6155E-4,0
CORVUS BC2,2017-042X,2026-06-15T09:37:47.468640,15.06284861,.00142256,97.4057,327.8202,116.1599,244.1094,0,U,42846,999,48679,.24801023E-3,.3591E-4,0
CORVUS BC1,2017-042Y,2026-06-15T12:41:37.120704,15.06456918,.0013247,97.4092,328.7559,94.3500,265.9242,0,U,42847,999,48684,.23973059E-3,.3484E-4,0
MAKERSAT 0,2017-073D,2026-06-15T14:41:53.223648,15.32055995,.01051595,97.4629,49.1195,278.6855,80.2486,0,U,43016,999,46622,.42925462E-3,.15748E-3,0
